NORAD_CAT_ID,OBJECT_NAME,OBJECT_TYPE,EPOCH,MEAN_MOTION,ECCENTRICITY,INCLINATION,RA_OF_ASC_NODE,ARG_OF_PERICENTER,MEAN_ANOMALY,BSTAR,MEAN_MOTION_DOT,MEAN_MOTION_DDOT,TLE_LINE0,TLE_LINE1,TLE_LINE2,SEMIMAJOR_AXIS,PERIOD,APOGEE,PERIGEE,DECAYED
56790.0,STARLINK-6345,PAYLOAD,2024-08-10 14:33:50,14.98326459,0.0002696,70.0015,317.0163,256.6397,103.4462,-6.0897e-05,-8.19e-06,0.0,0 STARLINK-6345,1 56790U 23078Z   24223.60683243 -.00000819  00000-0 -60897-4 0  9996,2 56790  70.0015 317.0163 0002696 256.6397 103.4462 14.98326459 67378,6950.204,96.107,573.943,570.195,0.0
56790.0,STARLINK-6345,PAYLOAD,2024-08-10 16:09:58,14.98330692,0.0002804,70.0011,316.8474,265.0541,95.0298,1.6999e-07,-9.1e-07,0.0,0 STARLINK-6345,1 56790U 23078Z   24223.67358900 -.00000091  00000-0  16999-6 0  9999,2 56790  70.0011 316.8474 0002804 265.0541  95.0298 14.98330692 67649,6950.191,96.107,574.005,570.107,0.0
56790.0,STARLINK-6345,PAYLOAD,2024-08-11 00:10:38,14.98325077,0.0002545,70.0027,316.0067,274.3031,85.7837,-6.1022e-05,-8.21e-06,0.0,0 STARLINK-6345,1 56790U 23078Z   24224.00739549 -.00000821  00000-0 -61022-4 0  9996,2 56790  70.0027 316.0067 0002545 274.3031  85.7837 14.98325077 67696,6950.208,96.107,573.842,570.304,0.0
56790.0,STARLINK-6345,PAYLOAD,2024-08-11 16:11:58,14.9833924,0.0002803,70.0004,314.3217,271.0718,89.0119,0.00010015,1.102e-05,0.0,0 STARLINK-6345,1 56790U 23078Z   24224.67498192  .00001102  00000-0  10015-3 0  9991,2 56790  70.0004 314.3217 0002803 271.0718  89.0119 14.98339240 67790,6950.164,96.106,573.977,570.081,0.0
56790.0,STARLINK-6345,PAYLOAD,2024-08-12 13:01:41,14.98353557,0.0002925,70.0009,312.1379,249.9781,110.1064,0.00028696,3.335e-05,0.0,0 STARLINK-6345,1 56790U 23078Z   24225.54284262  .00003335  00000-0  28696-3 0  9993,2 56790  70.0009 312.1379 0002925 249.9781 110.1064 14.98353557 67926,6950.12,96.105,574.018,569.952,0.0
56790.0,STARLINK-6345,PAYLOAD,2024-08-12 22:38:29,14.98348593,0.0003606,69.9989,311.1243,271.0673,89.0073,0.00044475,5.22e-05,0.0,0 STARLINK-6345,1 56790U 23078Z   24225.94339756  .00005220  00000-0  44475-3 0  9994,2 56790  69.9989 311.1243 0003606 271.0673  89.0073 14.98348593 67728,6950.135,96.106,574.507,569.494,0.0
56790.0,STARLINK-6345,PAYLOAD,2024-08-13 09:51:29,14.98313505,0.0002473,70.0008,309.9461,271.9857,88.1019,-0.0002932,-3.588e-05,0.0,0 STARLINK-6345,1 56790U 23078Z   24226.41076069 -.00003588  00000-0 -29320-3 0  9991,2 56790  70.0008 309.9461 0002473 271.9857  88.1019 14.98313505 68056,6950.244,96.108,573.828,570.39,0.0
56790.0,STARLINK-6345,PAYLOAD,2024-08-13 22:40:34,14.98315541,0.0002306,70.0017,308.6012,267.4215,92.668,-0.00027596,-3.383e-05,0.0,0 STARLINK-6345,1 56790U 23078Z   24226.94484239 -.00003383  00000-0 -27596-3 0  9997,2 56790  70.0017 308.6012 0002306 267.4215  92.6680 14.98315541 67872,6950.238,96.108,573.705,570.5,0.0
56790.0,STARLINK-6345,PAYLOAD,2024-08-14 05:05:06,14.98325299,0.0002623,70.0003,307.9255,267.7355,92.3503,-0.0002712,-3.327e-05,0.0,0 STARLINK-6345,1 56790U 23078Z   24227.21187726 -.00003327  00000-0 -27120-3 0  9990,2 56790  70.0003 307.9255 0002623 267.7355  92.3503 14.98325299 68174,6950.207,96.107,573.895,570.249,0.0
56790.0,STARLINK-6345,PAYLOAD,2024-08-14 14:41:54,14.98324559,0.000277,70.0005,306.9166,270.3801,89.7041,-0.00023032,-2.84e-05,0.0,0 STARLINK-6345,1 56790U 23078Z   24227.61243813 -.00002840  00000-0 -23032-3 0  9991,2 56790  70.0005 306.9166 0002770 270.3801  89.7041 14.98324559 67977,6950.21,96.107,574.0,570.15,0.0
56790.0,STARLINK-6345,PAYLOAD,2024-08-14 22:42:32,14.98411168,0.0002942,70.0001,306.0753,263.537,96.5454,-0.0015028,-0.00018016,0.0,0 STARLINK-6345,1 56790U 23078Z   24227.94621180 -.00018016  00000-0 -15028-2 0  9991,2 56790  70.0001 306.0753 0002942 263.5370  96.5454 14.98411168 68026,6949.942,96.102,573.852,569.762,0.0
56790.0,STARLINK-6345,PAYLOAD,2024-08-15 14:43:54,14.98329164,0.0002896,69.9995,304.3915,275.8554,84.2275,0.00028527,3.312e-05,0.0,0 STARLINK-6345,1 56790U 23078Z   24228.61382429  .00003312  00000-0  28527-3 0  9996,2 56790  69.9995 304.3915 0002896 275.8554  84.2275 14.98329164 68124,6950.195,96.107,574.073,570.048,0.0
56790.0,STARLINK-6345,PAYLOAD,2024-08-15 22:44:35,14.98322231,0.0002953,69.9994,303.5499,276.7174,83.3649,0.00017734,2.023e-05,0.0,0 STARLINK-6345,1 56790U 23078Z   24228.94763228  .00002023  00000-0  17734-3 0  9998,2 56790  69.9994 303.5499 0002953 276.7174  83.3649 14.98322231 68171,6950.217,96.107,574.134,570.03,0.0
56790.0,STARLINK-6345,PAYLOAD,2024-08-16 05:09:07,14.98320661,0.0002911,69.9995,302.8767,276.7434,83.3394,0.00013633,1.534e-05,0.0,0 STARLINK-6345,1 56790U 23078Z   24229.21467591  .00001534  00000-0  13633-3 0  9993,2 56790  69.9995 302.8767 0002911 276.7434  83.3394 14.98320661 68470,6950.222,96.108,574.11,570.064,0.0
56790.0,STARLINK-6345,PAYLOAD,2024-08-16 09:57:32,14.98322232,0.0002914,69.9995,302.3718,276.6909,83.3919,0.00014099,1.589e-05,0.0,0 STARLINK-6345,1 56790U 23078Z   24229.41495560  .00001589  00000-0  14099-3 0  9999,2 56790  69.9995 302.3718 0002914 276.6909  83.3919 14.98322232 68244,6950.217,96.107,574.107,570.057,0.0
56790.0,STARLINK-6345,PAYLOAD,2024-08-17 08:23:24,14.98340016,0.0002935,69.9989,300.014,274.3631,85.7192,2.6253e-05,2.2e-06,0.0,0 STARLINK-6345,1 56790U 23078Z   24230.34958583  .00000220  00000-0  26253-4 0  9999,2 56790  69.9989 300.0140 0002935 274.3631  85.7192 14.98340016 68644,6950.162,96.106,574.067,569.987,0.0
56790.0,STARLINK-6345,PAYLOAD,2024-08-17 14:47:56,14.98333556,0.0003114,69.9986,299.3388,269.028,91.0522,-8.7784e-05,-1.14e-05,0.0,0 STARLINK-6345,1 56790U 23078Z   24230.61663133 -.00001140  00000-0 -87784-4 0  9993,2 56790  69.9986 299.3388 0003114 269.0280  91.0522 14.98333556 68688,6950.182,96.107,574.211,569.883,0.0
56790.0,STARLINK-6345,PAYLOAD,2024-08-18 05:13:10,14.98313232,0.0002495,70.0018,297.827,252.4416,107.6471,-0.00012724,-1.61e-05,0.0,0 STARLINK-6345,1 56790U 23078Z   24231.21748784 -.00001610  00000-0 -12724-3 0  9999,2 56790  70.0018 297.8270 0002495 252.4416 107.6471 14.98313232 68774,6950.245,96.108,573.844,570.376,0.0
56790.0,STARLINK-6345,PAYLOAD,2024-08-18 14:50:00,14.98309842,0.0002361,70.0007,296.8169,251.3214,108.7689,-0.0001698,-2.117e-05,0.0,0 STARLINK-6345,1 56790U 23078Z   24231.61805701 -.00002117  00000-0 -16980-3 0  9997,2 56790  70.0007 296.8169 0002361 251.3214 108.7689 14.98309842 68577,6950.255,96.108,573.761,570.479,0.0
56790.0,STARLINK-6345,PAYLOAD,2024-08-19 03:39:03,14.98329575,0.0003112,69.9988,295.4677,273.631,86.4493,-6.4658e-05,-8.64e-06,0.0,0 STARLINK-6345,1 56790U 23078Z   24232.15212520 -.00000864  00000-0 -64658-4 0  9991,2 56790  69.9988 295.4677 0003112 273.6310  86.4493 14.98329575 68918,6950.194,96.107,574.222,569.896,0.0
56790.0,STARLINK-6345,PAYLOAD,2024-08-19 10:03:37,14.983119,0.0003377,69.9986,294.7946,271.46,88.6173,-0.00017263,-2.151e-05,0.0,0 STARLINK-6345,1 56790U 23078Z   24232.41917905 -.00002151  00000-0 -17263-3 0  9999,2 56790  69.9986 294.7946 0003377 271.4600  88.6173 14.98311900 68954,6950.249,96.108,574.461,569.767,0.0
56790.0,STARLINK-6345,PAYLOAD,2024-08-20 05:17:12,14.98322898,0.0002906,69.9991,292.7761,258.2566,101.8267,0.00017489,1.994e-05,0.0,0 STARLINK-6345,1 56790U 23078Z   24233.22028862  .00001994  00000-0  17489-3 0  9996,2 56790  69.9991 292.7761 0002906 258.2566 101.8267 14.98322898 69078,6950.215,96.107,574.1,570.06,0.0
56790.0,STARLINK-6345,PAYLOAD,2024-08-20 11:41:44,14.98330554,0.0003333,69.998,292.1007,269.3414,90.7363,0.00021436,2.466e-05,0.0,0 STARLINK-6345,1 56790U 23078Z   24233.48732344  .00002466  00000-0  21436-3 0  9993,2 56790  69.9980 292.1007 0003333 269.3414  90.7363 14.98330554 68859,6950.191,96.107,574.373,569.74,0.0
56790.0,STARLINK-6345,PAYLOAD,2024-08-21 05:19:14,14.9832589,0.0003223,69.9983,290.2501,266.7551,93.3239,0.00022457,2.587e-05,0.0,0 STARLINK-6345,1 56790U 23078Z   24234.22169182  .00002587  00000-0  22457-3 0  9998,2 56790  69.9983 290.2501 0003223 266.7551  93.3239 14.98325890 69221,6950.206,96.107,574.311,569.831,0.0
56790.0,STARLINK-6345,PAYLOAD,2024-08-21 13:19:54,14.9832933,0.0003188,69.9985,289.4087,266.4731,93.6064,0.00024307,2.808e-05,0.0,0 STARLINK-6345,1 56790U 23078Z   24234.55548957  .00002808  00000-0  24307-3 0  9997,2 56790  69.9985 289.4087 0003188 266.4731  93.6064 14.98329330 69018,6950.195,96.107,574.276,569.844,0.0
56790.0,STARLINK-6345,PAYLOAD,2024-08-22 05:21:13,14.98352149,0.000298,69.9989,287.7257,261.7061,98.376,0.00010084,1.111e-05,0.0,0 STARLINK-6345,1 56790U 23078Z   24235.22307173  .00001111  00000-0  10084-3 0  9998,2 56790  69.9989 287.7257 0002980 261.7061  98.3760 14.98352149 69373,6950.124,96.106,574.061,569.918,0.0
